OBJECT_NAME,OBJECT_ID,EPOCH,MEAN_MOTION,ECCENTRICITY,INCLINATION,RA_OF_ASC_NODE,ARG_OF_PERICENTER,MEAN_ANOMALY,EPHEMERIS_TYPE,CLASSIFICATION_TYPE,NORAD_CAT_ID,ELEMENT_SET_NO,REV_AT_EPOCH,BSTAR,MEAN_MOTION_DOT,MEAN_MOTION_DDOT
STARLINK-11592 [DTC],2025-075N,2026-06-15T18:10:36.958080,15.70915761,.00027761,43.0024,282.5421,258.8155,101.2400,0,U,63560,999,6867,.11560071E-2,.151103E-2,0
STARLINK-32953,2025-075P,2026-06-16T00:28:17.124096,15.27601849,.0002055,43.0036,75.4940,271.8115,88.2501,0,U,63561,999,6696,.52377E-3,.14188E-3,0
STARLINK-32951,2025-075Q,2026-06-16T00:22:43.663296,15.27591125,.0002154,43.0032,75.4391,269.3166,90.7439,0,U,63562,999,6697,.81322E-3,.22191E-3,0
STARLINK-32958,2025-075R,2026-06-15T11:34:40.631808,15.27584147,.00023086,43.0039,78.3413,262.7754,97.2835,0,U,63563,999,6688,.75044084E-3,.20449E-3,0
STARLINK-32928,2025-075S,2026-06-15T11:10:36.986304,15.27592269,.00017716,43.0035,78.2185,267.8154,92.2495,0,U,63564,999,6689,.55880538E-3,.15152E-3,0
STARLINK-32687,2025-075T,2026-06-16T00:20:52.317888,15.27582612,.0001837,43.0065,75.4298,272.1014,87.9627,0,U,63565,999,6697,.71064E-3,.19346E-3,0
STARLINK-32950,2025-075U,2026-06-16T01:10:36.649920,15.27581055,.0003783,43.0025,74.7950,286.1318,73.9117,0,U,63566,999,6697,.49063E-3,.13265E-3,0
STARLINK-32954,2025-075V,2026-06-15T11:21:42.752736,15.27582055,.00033739,43.0073,78.2451,264.4291,95.6176,0,U,63567,999,6688,.72578287E-3,.19766E-3,0
STARLINK-32940,2025-075W,2026-06-15T11:29:07.219392,15.27592544,.00014873,43.0071,78.2843,274.1947,85.8735,0,U,63568,999,6688,.75686716E-3,.20631E-3,0
STARLINK-32959,2025-076A,2026-06-15T15:04:41.555136,15.27590040,.00039754,43.0044,132.5694,265.0392,95.0006,0,U,63569,999,6676,.58140531E-3,.15778E-3,0
STARLINK-32956,2025-076B,2026-06-15T04:16:29.895456,15.27602504,.00036072,43.0118,134.3502,282.4462,77.5986,0,U,63570,999,6669,.49361167E-3,.13356E-3,0
STARLINK-33722,2025-076C,2026-06-16T04:09:53.222688,15.27587515,.0001279,43.0072,125.3923,266.1380,93.9325,0,U,63571,999,6688,.53094E-3,.1438E-3,0
STARLINK-33739,2025-076D,2026-06-15T14:52:26.244480,15.27587976,.00010945,42.9954,128.9786,265.0525,95.0202,0,U,63572,999,6680,.6109971E-3,.16593E-3,0
STARLINK-33683,2025-076E,2026-06-15T14:50:34.680480,15.27588229,.00030288,43.0069,128.9677,265.1000,94.9506,0,U,63573,999,6680,.77353842E-3,.21091E-3,0
STARLINK-33732,2025-076G,2026-06-16T04:39:29.361312,15.27584608,.00057,43.0039,125.5511,291.6856,68.3389,0,U,63575,999,6689,.61866E-3,.16809E-3,0
STARLINK-33800,2025-076H,2026-06-16T04:02:29.112000,15.27587121,.0002456,42.9963,125.3473,275.2993,84.7579,0,U,63576,999,6689,.55532E-3,.15054E-3,0
STARLINK-33632,2025-076J,2026-06-14T15:14:31.216128,15.27596278,.00034498,43.0056,134.4865,265.4516,94.5941,0,U,63577,999,6665,.8313952E-3,.227E-3,0
STARLINK-33719,2025-076K,2026-06-16T04:15:26.228160,15.27590301,.0001189,43.0018,125.4177,264.9012,95.1704,0,U,63578,999,6689,.67437E-3,.18347E-3,0
STARLINK-33755,2025-076L,2026-06-16T04:17:14.174592,15.27620025,.0000613,43.0065,125.3433,219.5885,140.4922,0,U,63579,999,6689,.58E-3,.15752E-3,0
STARLINK-33752,2025-076M,2026-06-16T04:35:47.753088,15.27589522,.0001909,43.0013,125.5269,265.6819,94.3814,0,U,63580,999,6689,.52282E-3,.14157E-3,0
STARLINK-33714,2025-076N,2026-06-16T04:04:19.865568,15.27566606,.0013938,43.0004,125.3563,281.0080,78.9204,0,U,63581,999,6689,.75177E-3,.20527E-3,0
STARLINK-33814,2025-076P,2026-06-16T03:55:04.736064,15.27599302,.0003149,43.0007,125.3074,104.5257,255.5944,0,U,63582,999,6689,.62912E-3,.17101E-3,0
STARLINK-33817,2025-076Q,2026-06-16T03:45:49.774176,15.27593626,.0003443,43.0048,125.2600,278.3427,81.7035,0,U,63583,999,6688,.78388E-3,.21382E-3,0
STARLINK-33820,2025-076R,2026-06-16T04:00:01.998720,15.27573937,.0001898,43.0022,125.1001,273.0662,183.7635,0,U,63584,999,590,-.54481E-4,-.1761E-4,0
STARLINK-33813,2025-076S,2026-06-16T03:36:36.080640,15.27587473,.0002056,43.0018,125.2084,269.9665,90.0951,0,U,63585,999,6689,.81071E-3,.22119E-3,0
STARLINK-33834,2025-076T,2026-06-16T04:26:32.019648,15.27589150,.0002608,43.0002,125.4711,278.3480,81.7075,0,U,63586,999,6689,.53258E-3,.14427E-3,0
STARLINK-33830,2025-076U,2026-06-16T04:22:50.477088,15.27604407,.00029,43.0024,125.4502,280.5129,79.5396,0,U,63587,999,6689,.8453E-3,.2309E-3,0
STARLINK-33651,2025-076V,2026-06-16T04:24:41.039712,15.27589085,.0002849,42.9920,125.4592,278.8266,81.2263,0,U,63588,999,6689,.57806E-3,.15684E-3,0
STARLINK-33788,2025-076W,2026-06-14T15:08:58.833600,15.27590270,.00017871,42.9934,134.4568,266.4160,93.6487,0,U,63589,999,6665,.74483799E-3,.20297E-3,0
STARLINK-33805,2025-076X,2026-06-15T14:56:07.888128,15.27592082,.00018258,43.0002,128.9792,266.3553,93.7090,0,U,63590,999,6680,.88041496E-3,.24053E-3,0
