STARLINK-11592 [DTC]    
1 63560U 25075N   26166.75737220  .00151103  00000+0  11560-2 0  9998
2 63560  43.0024 282.5421 0002776 258.8155 101.2400 15.70915761 68672
STARLINK-32953          
1 63561U 25075P   26167.01964264  .00014188  00000+0  52377-3 0  9992
2 63561  43.0036  75.4940 0002055 271.8115  88.2501 15.27601849 66969
STARLINK-32951          
1 63562U 25075Q   26167.01578314  .00022191  00000+0  81322-3 0  9995
2 63562  43.0032  75.4391 0002154 269.3166  90.7439 15.27591125 66978
STARLINK-32958          
1 63563U 25075R   26166.48241472  .00020449  00000+0  75044-3 0  9996
2 63563  43.0039  78.3413 0002308 262.7754  97.2835 15.27584147 66882
STARLINK-32928          
1 63564U 25075S   26166.46570586  .00015152  00000+0  55881-3 0  9998
2 63564  43.0035  78.2185 0001771 267.8154  92.2495 15.27592269 66899
STARLINK-32687          
1 63565U 25075T   26167.01449442  .00019346  00000+0  71064-3 0  9997
2 63565  43.0065  75.4298 0001837 272.1014  87.9627 15.27582612 66972
STARLINK-32950          
1 63566U 25075U   26167.04903530  .00013265  00000+0  49063-3 0  9992
2 63566  43.0025  74.7950 0003783 286.1318  73.9117 15.27581055 66979
STARLINK-32954          
1 63567U 25075V   26166.47341149  .00019766  00000+0  72578-3 0  9990
2 63567  43.0073  78.2451 0003373 264.4291  95.6176 15.27582055 66889
STARLINK-32940          
1 63568U 25075W   26166.47855578  .00020631  00000+0  75687-3 0  9994
2 63568  43.0071  78.2843 0001487 274.1947  85.8735 15.27592544 66889
STARLINK-32959          
1 63569U 25076A   26166.62825874  .00015778  00000+0  58141-3 0  9991
2 63569  43.0044 132.5694 0003975 265.0392  95.0006 15.27590040 66765
STARLINK-32956          
1 63570U 25076B   26166.17812379  .00013356  00000+0  49361-3 0  9993
2 63570  43.0118 134.3502 0003607 282.4462  77.5986 15.27602504 66693
STARLINK-33722          
1 63571U 25076C   26167.17353267  .00014380  00000+0  53094-3 0  9997
2 63571  43.0072 125.3923 0001279 266.1380  93.9325 15.27587515 66885
STARLINK-33739          
1 63572U 25076D   26166.61974820  .00016593  00000+0  61100-3 0  9995
2 63572  42.9954 128.9786 0001094 265.0525  95.0202 15.27587976 66803
STARLINK-33683          
1 63573U 25076E   26166.61845695  .00021091  00000+0  77354-3 0  9990
2 63573  43.0069 128.9677 0003028 265.1000  94.9506 15.27588229 66807
STARLINK-33732          
1 63575U 25076G   26167.19408983  .00016809  00000+0  61866-3 0  9993
2 63575  43.0039 125.5511 0005700 291.6856  68.3389 15.27584608 66898
STARLINK-33800          
1 63576U 25076H   26167.16839250  .00015054  00000+0  55532-3 0  9990
2 63576  42.9963 125.3473 0002456 275.2993  84.7579 15.27587121 66899
STARLINK-33632          
1 63577U 25076J   26165.63508352  .00022700  00000+0  83140-3 0  9999
2 63577  43.0056 134.4865 0003449 265.4516  94.5941 15.27596278 66655
STARLINK-33719          
1 63578U 25076K   26167.17738690  .00018347  00000+0  67437-3 0  9994
2 63578  43.0018 125.4177 0001189 264.9012  95.1704 15.27590301 66895
STARLINK-33755          
1 63579U 25076L   26167.17863628  .00015752  00000+0  58000-3 0  9998
2 63579  43.0065 125.3433 0000613 219.5885 140.4922 15.27620025 66890
STARLINK-33752          
1 63580U 25076M   26167.19152492  .00014157  00000+0  52282-3 0  9996
2 63580  43.0013 125.5269 0001909 265.6819  94.3814 15.27589522 66895
STARLINK-33714          
1 63581U 25076N   26167.16967437  .00020527  00000+0  75177-3 0  9993
2 63581  43.0004 125.3563 0013938 281.0080  78.9204 15.27566606 66897
STARLINK-33814          
1 63582U 25076P   26167.16324926  .00017101  00000+0  62912-3 0  9991
2 63582  43.0007 125.3074 0003149 104.5257 255.5944 15.27599302 66899
STARLINK-33817          
1 63583U 25076Q   26167.15682609  .00021382  00000+0  78388-3 0  9996
2 63583  43.0048 125.2600 0003443 278.3427  81.7035 15.27593626 66887
STARLINK-33820          
1 63584U 25076R   26167.16668980 -.00001761  00000+0 -54481-4 0  9994
2 63584  43.0022 125.1001 0001898 273.0662 183.7635 15.27573937  5907
STARLINK-33813          
1 63585U 25076S   26167.15041760  .00022119  00000+0  81071-3 0  9997
2 63585  43.0018 125.2084 0002056 269.9665  90.0951 15.27587473 66895
STARLINK-33834          
1 63586U 25076T   26167.18509282  .00014427  00000+0  53258-3 0  9998
2 63586  43.0002 125.4711 0002608 278.3480  81.7075 15.27589150 66898
STARLINK-33830          
1 63587U 25076U   26167.18252867  .00023090  00000+0  84530-3 0  9996
2 63587  43.0024 125.4502 0002900 280.5129  79.5396 15.27604407 66895
STARLINK-33651          
1 63588U 25076V   26167.18380833  .00015684  00000+0  57806-3 0  9998
2 63588  42.9920 125.4592 0002849 278.8266  81.2263 15.27589085 66899
STARLINK-33788          
1 63589U 25076W   26165.63123650  .00020297  00000+0  74484-3 0  9996
2 63589  42.9934 134.4568 0001787 266.4160  93.6487 15.27590270 66651
STARLINK-33805          
1 63590U 25076X   26166.62231352  .00024053  00000+0  88041-3 0  9995
2 63590  43.0002 128.9792 0001825 266.3553  93.7090 15.27592082 66807
